CCSDS_OMM_VERS = 2.0
CREATION_DATE  = 
ORIGINATOR     = 

OBJECT_NAME    = SZ-21 MODULE
OBJECT_ID      = 2025-246C
CENTER_NAME    = EARTH
REF_FRAME      = TEME
TIME_SYSTEM    = UTC
MEAN_ELEMENT_THEORY = SGP/SGP4

EPOCH          = 2025-11-22T18:43:04.160064
MEAN_MOTION    = 15.61150377
ECCENTRICITY   = .0004615
INCLINATION    = 41.4751
RA_OF_ASC_NODE = 137.6797
ARG_OF_PERICENTER = 123.8614
MEAN_ANOMALY   = 236.2664

EPHEMERIS_TYPE = 0
CLASSIFICATION_TYPE = U
NORAD_CAT_ID   = 66515
ELEMENT_SET_NO = 999
REV_AT_EPOCH   = 132
BSTAR          = .28795E-3
MEAN_MOTION_DOT = .24779E-3
MEAN_MOTION_DDOT = 0

