SZ-21 MODULE            
1 66515U 25246C   25326.77990926  .00024779  00000+0  28795-3 0  9991
2 66515  41.4751 137.6797 0004615 123.8614 236.2664 15.61150377  1329
